QIANFAN-69              
1 62799U 25016Q   26064.79736554  .00000059  00000+0  71654-4 0  9991
2 62799  88.9666  94.3546 0017961 104.1662 256.1486 13.51005366 58491
QIANFAN-70              
1 62800U 25016R   26064.81378429  .00000052  00000+0  61485-4 0  9994
2 62800  88.9687  94.5090 0017573  95.6721 264.6434 13.50997100 58450
QIANFAN-71              
1 62801U 25016S   26064.80961403  .00000041  00000+0  44349-4 0  9992
2 62801  88.9681  94.4838 0017848 107.2733 253.0372 13.50996563 58457
QIANFAN-72              
1 62802U 25016T   26064.75201884  .00000024  00000+0  17469-4 0  9991
2 62802  88.9672  94.4951 0021055 114.1240 246.2116 13.50996220 58437
QIANFAN-73              
1 63159U 25046A   26064.77887404  .00000194  00000+0  28253-3 0  9990
2 63159  88.9759 311.4471 0013166 242.4312 117.5502 13.50998461 58626
QIANFAN-74              
1 63160U 25046B   26064.76247403  .00000200  00000+0  29064-3 0  9999
2 63160  88.9759 311.3376 0001899  78.5506 281.5858 13.50998324 58684
QIANFAN-75              
1 63161U 25046C   26064.74961123  .00000080  00000+0  10569-3 0  9996
2 63161  88.9763 311.5738 0014340 246.1354 113.8295 13.50998333 58551
QIANFAN-76              
1 63162U 25046D   26064.74593508  .00000232  00000+0  33996-3 0  9993
2 63162  88.9761 311.5540 0011880 246.9103 113.0796 13.51014735 58562
QIANFAN-77              
1 63163U 25046E   26064.75230031  .00000468  00000+0  33044-3 0  9999
2 63163  88.9756 308.8783 0014480 173.9777 186.1577 13.96174870 60039
QIANFAN-78              
1 63164U 25046F   26064.78710740  .00000232  00000+0  34069-3 0  9990
2 63164  88.9759 311.4130 0013208 249.5702 110.4031 13.50998719 58649
QIANFAN-79              
1 63165U 25046G   26064.81604845  .00000219  00000+0  31989-3 0  9996
2 63165  88.9764 311.5208 0013064 247.6720 112.3047 13.51008884 58590
QIANFAN-80              
1 63166U 25046H   26064.75828399  .00000204  00000+0  29738-3 0  9995
2 63166  88.9760 311.2314 0011890 252.5436 107.4415 13.50998430 58741
QIANFAN-81              
1 63167U 25046J   26064.81050285  .00000205  00000+0  29914-3 0  9991
2 63167  88.9760 311.2938 0012992 240.0412 119.9450 13.50984337 58708
QIANFAN-82              
1 63168U 25046K   26064.77067030  .00000203  00000+0  29644-3 0  9991
2 63168  88.9760 311.3420 0011021 248.0621 111.9359 13.50999754 58684
QIANFAN-83              
1 63169U 25046L   26064.78857936  .00000282  00000+0  35010-3 0  9996
2 63169  88.9760 310.9533 0012491 225.7741 134.2391 13.62021218 58905
QIANFAN-84              
1 63170U 25046M   26064.79850254 -.00000078  00000+0 -13941-3 0  9999
2 63170  88.9759 311.4712 0014055 244.3782 115.5917 13.50961278 58610
QIANFAN-85              
1 63171U 25046N   26064.79533800  .00000207  00000+0  30251-3 0  9990
2 63171  88.9760 311.3433 0011445 246.6931 113.3016 13.51002502 58683
