[{"OBJECT_NAME":"QIANFAN-69","OBJECT_ID":"2025-016Q","EPOCH":"2026-03-05T19:08:12.382656","MEAN_MOTION":13.51005366,"ECCENTRICITY":0.0017961,"INCLINATION":88.9666,"RA_OF_ASC_NODE":94.3546,"ARG_OF_PERICENTER":104.1662,"MEAN_ANOMALY":256.1486,"EPHEMERIS_TYPE":0,"CLASSIFICATION_TYPE":"U","NORAD_CAT_ID":62799,"ELEMENT_SET_NO":999,"REV_AT_EPOCH":5849,"BSTAR":7.1654e-5,"MEAN_MOTION_DOT":5.9e-7,"MEAN_MOTION_DDOT":0},{"OBJECT_NAME":"QIANFAN-70","OBJECT_ID":"2025-016R","EPOCH":"2026-03-05T19:31:50.962656","MEAN_MOTION":13.509971,"ECCENTRICITY":0.0017573,"INCLINATION":88.9687,"RA_OF_ASC_NODE":94.509,"ARG_OF_PERICENTER":95.6721,"MEAN_ANOMALY":264.6434,"EPHEMERIS_TYPE":0,"CLASSIFICATION_TYPE":"U","NORAD_CAT_ID":62800,"ELEMENT_SET_NO":999,"REV_AT_EPOCH":5845,"BSTAR":6.1485e-5,"MEAN_MOTION_DOT":5.2e-7,"MEAN_MOTION_DDOT":0},{"OBJECT_NAME":"QIANFAN-71","OBJECT_ID":"2025-016S","EPOCH":"2026-03-05T19:25:50.652192","MEAN_MOTION":13.50996563,"ECCENTRICITY":0.0017848,"INCLINATION":88.9681,"RA_OF_ASC_NODE":94.4838,"ARG_OF_PERICENTER":107.2733,"MEAN_ANOMALY":253.0372,"EPHEMERIS_TYPE":0,"CLASSIFICATION_TYPE":"U","NORAD_CAT_ID":62801,"ELEMENT_SET_NO":999,"REV_AT_EPOCH":5845,"BSTAR":4.4349e-5,"MEAN_MOTION_DOT":4.1e-7,"MEAN_MOTION_DDOT":0},{"OBJECT_NAME":"QIANFAN-72","OBJECT_ID":"2025-016T","EPOCH":"2026-03-05T18:02:54.427776","MEAN_MOTION":13.5099622,"ECCENTRICITY":0.0021055,"INCLINATION":88.9672,"RA_OF_ASC_NODE":94.4951,"ARG_OF_PERICENTER":114.124,"MEAN_ANOMALY":246.2116,"EPHEMERIS_TYPE":0,"CLASSIFICATION_TYPE":"U","NORAD_CAT_ID":62802,"ELEMENT_SET_NO":999,"REV_AT_EPOCH":5843,"BSTAR":1.7469e-5,"MEAN_MOTION_DOT":2.4e-7,"MEAN_MOTION_DDOT":0},{"OBJECT_NAME":"QIANFAN-73","OBJECT_ID":"2025-046A","EPOCH":"2026-03-05T18:41:34.717056","MEAN_MOTION":13.50998461,"ECCENTRICITY":0.0013166,"INCLINATION":88.9759,"RA_OF_ASC_NODE":311.4471,"ARG_OF_PERICENTER":242.4312,"MEAN_ANOMALY":117.5502,"EPHEMERIS_TYPE":0,"CLASSIFICATION_TYPE":"U","NORAD_CAT_ID":63159,"ELEMENT_SET_NO":999,"REV_AT_EPOCH":5862,"BSTAR":0.00028253,"MEAN_MOTION_DOT":1.94e-6,"MEAN_MOTION_DDOT":0},{"OBJECT_NAME":"QIANFAN-74","OBJECT_ID":"2025-046B","EPOCH":"2026-03-05T18:17:57.756192","MEAN_MOTION":13.50998324,"ECCENTRICITY":0.0001899,"INCLINATION":88.9759,"RA_OF_ASC_NODE":311.3376,"ARG_OF_PERICENTER":78.5506,"MEAN_ANOMALY":281.5858,"EPHEMERIS_TYPE":0,"CLASSIFICATION_TYPE":"U","NORAD_CAT_ID":63160,"ELEMENT_SET_NO":999,"REV_AT_EPOCH":5868,"BSTAR":0.00029064,"MEAN_MOTION_DOT":2.0e-6,"MEAN_MOTION_DDOT":0},{"OBJECT_NAME":"QIANFAN-75","OBJECT_ID":"2025-046C","EPOCH":"2026-03-05T17:59:26.410272","MEAN_MOTION":13.50998333,"ECCENTRICITY":0.001434,"INCLINATION":88.9763,"RA_OF_ASC_NODE":311.5738,"ARG_OF_PERICENTER":246.1354,"MEAN_ANOMALY":113.8295,"EPHEMERIS_TYPE":0,"CLASSIFICATION_TYPE":"U","NORAD_CAT_ID":63161,"ELEMENT_SET_NO":999,"REV_AT_EPOCH":5855,"BSTAR":0.00010569,"MEAN_MOTION_DOT":8.0e-7,"MEAN_MOTION_DDOT":0},{"OBJECT_NAME":"QIANFAN-76","OBJECT_ID":"2025-046D","EPOCH":"2026-03-05T17:54:08.790912","MEAN_MOTION":13.51014735,"ECCENTRICITY":0.001188,"INCLINATION":88.9761,"RA_OF_ASC_NODE":311.554,"ARG_OF_PERICENTER":246.9103,"MEAN_ANOMALY":113.0796,"EPHEMERIS_TYPE":0,"CLASSIFICATION_TYPE":"U","NORAD_CAT_ID":63162,"ELEMENT_SET_NO":999,"REV_AT_EPOCH":5856,"BSTAR":0.00033996,"MEAN_MOTION_DOT":2.32e-6,"MEAN_MOTION_DDOT":0},{"OBJECT_NAME":"QIANFAN-77","OBJECT_ID":"2025-046E","EPOCH":"2026-03-05T18:03:18.746784","MEAN_MOTION":13.9617487,"ECCENTRICITY":0.001448,"INCLINATION":88.9756,"RA_OF_ASC_NODE":308.8783,"ARG_OF_PERICENTER":173.9777,"MEAN_ANOMALY":186.1577,"EPHEMERIS_TYPE":0,"CLASSIFICATION_TYPE":"U","NORAD_CAT_ID":63163,"ELEMENT_SET_NO":999,"REV_AT_EPOCH":6003,"BSTAR":0.00033044,"MEAN_MOTION_DOT":4.68e-6,"MEAN_MOTION_DDOT":0},{"OBJECT_NAME":"QIANFAN-78","OBJECT_ID":"2025-046F","EPOCH":"2026-03-05T18:53:26.079360","MEAN_MOTION":13.50998719,"ECCENTRICITY":0.0013208,"INCLINATION":88.9759,"RA_OF_ASC_NODE":311.413,"ARG_OF_PERICENTER":249.5702,"MEAN_ANOMALY":110.4031,"EPHEMERIS_TYPE":0,"CLASSIFICATION_TYPE":"U","NORAD_CAT_ID":63164,"ELEMENT_SET_NO":999,"REV_AT_EPOCH":5864,"BSTAR":0.00034069,"MEAN_MOTION_DOT":2.32e-6,"MEAN_MOTION_DDOT":0},{"OBJECT_NAME":"QIANFAN-79","OBJECT_ID":"2025-046G","EPOCH":"2026-03-05T19:35:06.586080","MEAN_MOTION":13.51008884,"ECCENTRICITY":0.0013064,"INCLINATION":88.9764,"RA_OF_ASC_NODE":311.5208,"ARG_OF_PERICENTER":247.672,"MEAN_ANOMALY":112.3047,"EPHEMERIS_TYPE":0,"CLASSIFICATION_TYPE":"U","NORAD_CAT_ID":63165,"ELEMENT_SET_NO":999,"REV_AT_EPOCH":5859,"BSTAR":0.00031989,"MEAN_MOTION_DOT":2.19e-6,"MEAN_MOTION_DDOT":0},{"OBJECT_NAME":"QIANFAN-80","OBJECT_ID":"2025-046H","EPOCH":"2026-03-05T18:11:55.736736","MEAN_MOTION":13.5099843,"ECCENTRICITY":0.001189,"INCLINATION":88.976,"RA_OF_ASC_NODE":311.2314,"ARG_OF_PERICENTER":252.5436,"MEAN_ANOMALY":107.4415,"EPHEMERIS_TYPE":0,"CLASSIFICATION_TYPE":"U","NORAD_CAT_ID":63166,"ELEMENT_SET_NO":999,"REV_AT_EPOCH":5874,"BSTAR":0.00029738,"MEAN_MOTION_DOT":2.04e-6,"MEAN_MOTION_DDOT":0},{"OBJECT_NAME":"QIANFAN-81","OBJECT_ID":"2025-046J","EPOCH":"2026-03-05T19:27:07.446240","MEAN_MOTION":13.50984337,"ECCENTRICITY":0.0012992,"INCLINATION":88.976,"RA_OF_ASC_NODE":311.2938,"ARG_OF_PERICENTER":240.0412,"MEAN_ANOMALY":119.945,"EPHEMERIS_TYPE":0,"CLASSIFICATION_TYPE":"U","NORAD_CAT_ID":63167,"ELEMENT_SET_NO":999,"REV_AT_EPOCH":5870,"BSTAR":0.00029914,"MEAN_MOTION_DOT":2.05e-6,"MEAN_MOTION_DDOT":0},{"OBJECT_NAME":"QIANFAN-82","OBJECT_ID":"2025-046K","EPOCH":"2026-03-05T18:29:45.913920","MEAN_MOTION":13.50999754,"ECCENTRICITY":0.0011021,"INCLINATION":88.976,"RA_OF_ASC_NODE":311.342,"ARG_OF_PERICENTER":248.0621,"MEAN_ANOMALY":111.9359,"EPHEMERIS_TYPE":0,"CLASSIFICATION_TYPE":"U","NORAD_CAT_ID":63168,"ELEMENT_SET_NO":999,"REV_AT_EPOCH":5868,"BSTAR":0.00029644,"MEAN_MOTION_DOT":2.03e-6,"MEAN_MOTION_DDOT":0},{"OBJECT_NAME":"QIANFAN-83","OBJECT_ID":"2025-046L","EPOCH":"2026-03-05T18:55:33.256704","MEAN_MOTION":13.62021218,"ECCENTRICITY":0.0012491,"INCLINATION":88.976,"RA_OF_ASC_NODE":310.9533,"ARG_OF_PERICENTER":225.7741,"MEAN_ANOMALY":134.2391,"EPHEMERIS_TYPE":0,"CLASSIFICATION_TYPE":"U","NORAD_CAT_ID":63169,"ELEMENT_SET_NO":999,"REV_AT_EPOCH":5890,"BSTAR":0.0003501,"MEAN_MOTION_DOT":2.82e-6,"MEAN_MOTION_DDOT":0},{"OBJECT_NAME":"QIANFAN-84","OBJECT_ID":"2025-046M","EPOCH":"2026-03-05T19:09:50.619456","MEAN_MOTION":13.50961278,"ECCENTRICITY":0.0014055,"INCLINATION":88.9759,"RA_OF_ASC_NODE":311.4712,"ARG_OF_PERICENTER":244.3782,"MEAN_ANOMALY":115.5917,"EPHEMERIS_TYPE":0,"CLASSIFICATION_TYPE":"U","NORAD_CAT_ID":63170,"ELEMENT_SET_NO":999,"REV_AT_EPOCH":5861,"BSTAR":-0.00013941,"MEAN_MOTION_DOT":-7.8e-7,"MEAN_MOTION_DDOT":0},{"OBJECT_NAME":"QIANFAN-85","OBJECT_ID":"2025-046N","EPOCH":"2026-03-05T19:05:17.203200","MEAN_MOTION":13.51002502,"ECCENTRICITY":0.0011445,"INCLINATION":88.976,"RA_OF_ASC_NODE":311.3433,"ARG_OF_PERICENTER":246.6931,"MEAN_ANOMALY":113.3016,"EPHEMERIS_TYPE":0,"CLASSIFICATION_TYPE":"U","NORAD_CAT_ID":63171,"ELEMENT_SET_NO":999,"REV_AT_EPOCH":5868,"BSTAR":0.00030251,"MEAN_MOTION_DOT":2.07e-6,"MEAN_MOTION_DDOT":0}]
